start=new Date('2022-11-21T00:00:00.000Z').valueOf();
sats=[{"GP_ID":"218363658","TLE_LINE1":"1 54199U 22141AU  22324.91667824 -.00013567  00000-0 -92290-4 0  9994","CLASSIFICATION_TYPE":"U","PERIAPSIS":"347.556","MEAN_ANOMALY":"293.9682","RCS_SIZE":"LARGE","DECAY_DATE":null,"MEAN_MOTION":"15.73215572","SITE":"AFWTR","ELEMENT_SET_NO":"999","TLE_LINE2":"2 54199  53.2186  25.7346 0003210  11.1164 293.9682 15.73215572  1303","BSTAR":"-0.00009229000000","NORAD_CAT_ID":"54199","LAUNCH_DATE":"2022-10-28","REF_FRAME":"TEME","APOAPSIS":"351.875","INCLINATION":"53.2186","RA_OF_ASC_NODE":"25.7346","EPHEMERIS_TYPE":"0","ARG_OF_PERICENTER":"11.1164","OBJECT_ID":"2022-141AU","FILE":"3665715","COUNTRY_CODE":"US","ECCENTRICITY":"0.00032100","REV_AT_EPOCH":"130","TIME_SYSTEM":"UTC","CENTER_NAME":"EARTH","PERIOD":"91.532","SEMIMAJOR_AXIS":"6727.851","OBJECT_NAME":"STARLINK-5244","MEAN_MOTION_DDOT":"0.0000000000000","EPOCH":"2022-11-20T22:00:00.999936","MEAN_MOTION_DOT":"-0.00013567","MEAN_ELEMENT_THEORY":"SGP4","OBJECT_TYPE":"PAYLOAD"},{"LAUNCH_DATE":"2022-10-28","NORAD_CAT_ID":"54200","TLE_LINE2":"2 54200  53.2155  25.7215 0002948  18.0985 289.9890 15.73164701  4026","ELEMENT_SET_NO":"999","BSTAR":"0.00007284500000","INCLINATION":"53.2155","APOAPSIS":"351.844","REF_FRAME":"TEME","PERIAPSIS":"347.877","TLE_LINE1":"1 54200U 22141AV  22324.91667824  .00009599  00000-0  72845-4 0  9999","CLASSIFICATION_TYPE":"U","GP_ID":"218322232","MEAN_MOTION":"15.73164701","SITE":"AFWTR","DECAY_DATE":null,"MEAN_ANOMALY":"289.9890","RCS_SIZE":"LARGE","OBJECT_NAME":"STARLINK-5250","SEMIMAJOR_AXIS":"6727.996","MEAN_MOTION_DOT":"0.00009599","MEAN_MOTION_DDOT":"0.0000000000000","EPOCH":"2022-11-20T22:00:00.999936","PERIOD":"91.535","CENTER_NAME":"EARTH","OBJECT_TYPE":"PAYLOAD","MEAN_ELEMENT_THEORY":"SGP4","OBJECT_ID":"2022-141AV","ARG_OF_PERICENTER":"18.0985","EPHEMERIS_TYPE":"0","RA_OF_ASC_NODE":"25.7215","TIME_SYSTEM":"UTC","ECCENTRICITY":"0.00029480","REV_AT_EPOCH":"402","COUNTRY_CODE":"US","FILE":"3665027"},{"COUNTRY_CODE":"US","FILE":"3665027","TIME_SYSTEM":"UTC","REV_AT_EPOCH":"402","ECCENTRICITY":"0.00031250","RA_OF_ASC_NODE":"25.7262","OBJECT_ID":"2022-141AW","ARG_OF_PERICENTER":"17.4849","EPHEMERIS_TYPE":"0","MEAN_ELEMENT_THEORY":"SGP4","OBJECT_TYPE":"PAYLOAD","CENTER_NAME":"EARTH","OBJECT_NAME":"STARLINK-5199","SEMIMAJOR_AXIS":"6727.800","MEAN_MOTION_DDOT":"0.0000000000000","MEAN_MOTION_DOT":"-0.00067584","EPOCH":"2022-11-20T22:00:00.999936","PERIOD":"91.531","MEAN_ANOMALY":"291.1418","RCS_SIZE":"LARGE","MEAN_MOTION":"15.73233451","SITE":"AFWTR","DECAY_DATE":null,"TLE_LINE1":"1 54201U 22141AW  22324.91667824 -.00067584  00000-0 -48014-3 0  9990","CLASSIFICATION_TYPE":"U","GP_ID":"218322735","PERIAPSIS":"347.562","APOAPSIS":"351.767","REF_FRAME":"TEME","INCLINATION":"53.2178","ELEMENT_SET_NO":"999","TLE_LINE2":"2 54201  53.2178  25.7262 0003125  17.4849 291.1418 15.73233451  4024","BSTAR":"-0.00048014000000","LAUNCH_DATE":"2022-10-28","NORAD_CAT_ID":"54201"},{"ECCENTRICITY":"0.00028620","REV_AT_EPOCH":"402","TIME_SYSTEM":"UTC","FILE":"3665027","COUNTRY_CODE":"US","ARG_OF_PERICENTER":"22.5721","EPHEMERIS_TYPE":"0","OBJECT_ID":"2022-141AX","RA_OF_ASC_NODE":"25.7229","OBJECT_TYPE":"PAYLOAD","MEAN_ELEMENT_THEORY":"SGP4","PERIOD":"91.533","SEMIMAJOR_AXIS":"6727.876","OBJECT_NAME":"STARLINK-5205","MEAN_MOTION_DOT":"-0.00055694","MEAN_MOTION_DDOT":"0.0000000000000","EPOCH":"2022-11-20T22:00:00.999936","CENTER_NAME":"EARTH","DECAY_DATE":null,"MEAN_MOTION":"15.73206669","SITE":"AFWTR","MEAN_ANOMALY":"286.6808","RCS_SIZE":"LARGE","PERIAPSIS":"347.816","GP_ID":"218322733","TLE_LINE1":"1 54202U 22141AX  22324.91667824 -.00055694  00000-0 -39481-3 0  9998","CLASSIFICATION_TYPE":"U","INCLINATION":"53.2172","REF_FRAME":"TEME","APOAPSIS":"351.667","NORAD_CAT_ID":"54202","LAUNCH_DATE":"2022-10-28","ELEMENT_SET_NO":"999","TLE_LINE2":"2 54202  53.2172  25.7229 0002862  22.5721 286.6808 15.73206669  4028","BSTAR":"-0.00039481000000"},{"REF_FRAME":"TEME","APOAPSIS":"351.732","INCLINATION":"53.2173","TLE_LINE2":"2 54203  53.2173  25.7280 0002787   9.2342 297.6590 15.73166139  4021","ELEMENT_SET_NO":"999","BSTAR":"0.00006186100000","NORAD_CAT_ID":"54203","LAUNCH_DATE":"2022-10-28","MEAN_ANOMALY":"297.6590","RCS_SIZE":"LARGE","DECAY_DATE":null,"MEAN_MOTION":"15.73166139","SITE":"AFWTR","GP_ID":"218322737","TLE_LINE1":"1 54203U 22141AY  22324.91667824  .00008057  00000-0  61861-4 0  9996","CLASSIFICATION_TYPE":"U","PERIAPSIS":"347.982","MEAN_ELEMENT_THEORY":"SGP4","OBJECT_TYPE":"PAYLOAD","CENTER_NAME":"EARTH","PERIOD":"91.535","SEMIMAJOR_AXIS":"6727.992","OBJECT_NAME":"STARLINK-5247","MEAN_MOTION_DDOT":"0.0000000000000","MEAN_MOTION_DOT":"0.00008057","EPOCH":"2022-11-20T22:00:00.999936","FILE":"3665032","COUNTRY_CODE":"US","REV_AT_EPOCH":"402","ECCENTRICITY":"0.00027870","TIME_SYSTEM":"UTC","RA_OF_ASC_NODE":"25.7280","ARG_OF_PERICENTER":"9.2342","EPHEMERIS_TYPE":"0","OBJECT_ID":"2022-141AY"},{"OBJECT_ID":"2022-141AZ","ARG_OF_PERICENTER":"11.2177","EPHEMERIS_TYPE":"0","RA_OF_ASC_NODE":"25.7198","TIME_SYSTEM":"UTC","REV_AT_EPOCH":"130","ECCENTRICITY":"0.00028360","COUNTRY_CODE":"US","FILE":"3665715","SEMIMAJOR_AXIS":"6727.942","OBJECT_NAME":"STARLINK-5241","EPOCH":"2022-11-20T22:00:00.999936","MEAN_MOTION_DDOT":"0.0000000000000","MEAN_MOTION_DOT":"-0.00061254","PERIOD":"91.534","CENTER_NAME":"EARTH","OBJECT_TYPE":"PAYLOAD","MEAN_ELEMENT_THEORY":"SGP4","PERIAPSIS":"347.899","TLE_LINE1":"1 54204U 22141AZ  22324.91667824 -.00061254  00000-0 -43539-3 0  9998","CLASSIFICATION_TYPE":"U","GP_ID":"218364154","MEAN_MOTION":"15.73183410","SITE":"AFWTR","DECAY_DATE":null,"MEAN_ANOMALY":"299.8589","RCS_SIZE":"LARGE","LAUNCH_DATE":"2022-10-28","NORAD_CAT_ID":"54204","TLE_LINE2":"2 54204  53.2177  25.7198 0002836  11.2177 299.8589 15.73183410  1309","ELEMENT_SET_NO":"999","BSTAR":"-0.00043539000000","INCLINATION":"53.2177","APOAPSIS":"351.716","REF_FRAME":"TEME"},{"INCLINATION":"53.2175","APOAPSIS":"351.685","REF_FRAME":"TEME","LAUNCH_DATE":"2022-10-28","NORAD_CAT_ID":"54205","TLE_LINE2":"2 54205  53.2175  25.7225 0002834  15.0370 294.7877 15.73193706  4029","ELEMENT_SET_NO":"999","BSTAR":"-0.00031386000000","MEAN_MOTION":"15.73193706","SITE":"AFWTR","DECAY_DATE":null,"MEAN_ANOMALY":"294.7877","RCS_SIZE":"LARGE","PERIAPSIS":"347.871","TLE_LINE1":"1 54205U 22141BA  22324.91667824 -.00044436  00000-0 -31386-3 0  9999","CLASSIFICATION_TYPE":"U","GP_ID":"218322787","OBJECT_TYPE":"PAYLOAD","MEAN_ELEMENT_THEORY":"SGP4","SEMIMAJOR_AXIS":"6727.913","OBJECT_NAME":"STARLINK-5249","MEAN_MOTION_DOT":"-0.00044436","MEAN_MOTION_DDOT":"0.0000000000000","EPOCH":"2022-11-20T22:00:00.999936","PERIOD":"91.534","CENTER_NAME":"EARTH","TIME_SYSTEM":"UTC","ECCENTRICITY":"0.00028340","REV_AT_EPOCH":"402","COUNTRY_CODE":"US","FILE":"3665032","OBJECT_ID":"2022-141BA","EPHEMERIS_TYPE":"0","ARG_OF_PERICENTER":"15.0370","RA_OF_ASC_NODE":"25.7225"},{"PERIAPSIS":"348.326","GP_ID":"218322752","CLASSIFICATION_TYPE":"U","TLE_LINE1":"1 54206U 22141BB  22324.91667824  .00038737  00000-0  27963-3 0  9991","DECAY_DATE":null,"MEAN_MOTION":"15.73158301","SITE":"AFWTR","MEAN_ANOMALY":"137.2972","RCS_SIZE":"LARGE","NORAD_CAT_ID":"54206","LAUNCH_DATE":"2022-10-28","ELEMENT_SET_NO":"999","TLE_LINE2":"2 54206  53.2159  25.2896 0002309  22.2787 137.2972 15.73158301  4029","BSTAR":"0.00027963000000","INCLINATION":"53.2159","REF_FRAME":"TEME","APOAPSIS":"351.433","ARG_OF_PERICENTER":"22.2787","EPHEMERIS_TYPE":"0","OBJECT_ID":"2022-141BB","RA_OF_ASC_NODE":"25.2896","REV_AT_EPOCH":"402","ECCENTRICITY":"0.00023090","TIME_SYSTEM":"UTC","FILE":"3665035","COUNTRY_CODE":"US","PERIOD":"91.536","OBJECT_NAME":"STARLINK-5264","SEMIMAJOR_AXIS":"6728.014","MEAN_MOTION_DOT":"0.00038737","MEAN_MOTION_DDOT":"0.0000000000000","EPOCH":"2022-11-20T22:00:00.999936","CENTER_NAME":"EARTH","OBJECT_TYPE":"PAYLOAD","MEAN_ELEMENT_THEORY":"SGP4"},{"APOAPSIS":"351.687","REF_FRAME":"TEME","INCLINATION":"53.2178","BSTAR":"-0.00040898000000","TLE_LINE2":"2 54207  53.2178  25.7222 0002866  10.6177 299.7931 15.73200354  4026","ELEMENT_SET_NO":"999","LAUNCH_DATE":"2022-10-28","NORAD_CAT_ID":"54207","RCS_SIZE":"LARGE","MEAN_ANOMALY":"299.7931","SITE":"AFWTR","MEAN_MOTION":"15.73200354","DECAY_DATE":null,"TLE_LINE1":"1 54207U 22141BC  22324.91667824 -.00057642  00000-0 -40898-3 0  9992","CLASSIFICATION_TYPE":"U","GP_ID":"218322810","PERIAPSIS":"347.831","MEAN_ELEMENT_THEORY":"SGP4","OBJECT_TYPE":"PAYLOAD","CENTER_NAME":"EARTH","MEAN_MOTION_DDOT":"0.0000000000000","EPOCH":"2022-11-20T22:00:00.999936","MEAN_MOTION_DOT":"-0.00057642","SEMIMAJOR_AXIS":"6727.894","OBJECT_NAME":"STARLINK-5262","PERIOD":"91.533","COUNTRY_CODE":"US","FILE":"3665035","TIME_SYSTEM":"UTC","REV_AT_EPOCH":"402","ECCENTRICITY":"0.00028660","RA_OF_ASC_NODE":"25.7222","OBJECT_ID":"2022-141BC","ARG_OF_PERICENTER":"10.6177","EPHEMERIS_TYPE":"0"},{"RA_OF_ASC_NODE":"25.7181","EPHEMERIS_TYPE":"0","ARG_OF_PERICENTER":"9.3270","OBJECT_ID":"2022-141BD","FILE":"3665035","COUNTRY_CODE":"US","REV_AT_EPOCH":"402","ECCENTRICITY":"0.00029740","TIME_SYSTEM":"UTC","CENTER_NAME":"EARTH","PERIOD":"91.532","OBJECT_NAME":"STARLINK-5255","SEMIMAJOR_AXIS":"6727.828","EPOCH":"2022-11-20T22:00:00.999936","MEAN_MOTION_DDOT":"0.0000000000000","MEAN_MOTION_DOT":"-0.00072715","MEAN_ELEMENT_THEORY":"SGP4","OBJECT_TYPE":"PAYLOAD","GP_ID":"218322802","TLE_LINE1":"1 54208U 22141BD  22324.91667824 -.00072715  00000-0 -51748-3 0  9997","CLASSIFICATION_TYPE":"U","PERIAPSIS":"347.693","MEAN_ANOMALY":"302.3075","RCS_SIZE":"LARGE","DECAY_DATE":null,"MEAN_MOTION":"15.73223408","SITE":"AFWTR","TLE_LINE2":"2 54208  53.2173  25.7181 0002974   9.3270 302.3075 15.73223408  4020","ELEMENT_SET_NO":"999","BSTAR":"-0.00051748000000","NORAD_CAT_ID":"54208","LAUNCH_DATE":"2022-10-28","REF_FRAME":"TEME","APOAPSIS":"351.694","INCLINATION":"53.2173"}];
